APRIZESAT 2             
1 28366U 04025A   22223.57733477  .00000080  00000+0  38812-4 0  9993
2 28366  98.1585  89.8819 0107690 168.7260 191.6377 14.36833019949733
SAUDICOMSAT 1           
1 28369U 04025D   22223.46336382  .00000225  00000+0  65753-4 0  9993
2 28369  98.4443 185.4529 0033689   8.6707 351.5063 14.52827231959835
SAUDICOMSAT 2           
1 28370U 04025E   22223.48690150  .00000128  00000+0  46638-4 0  9996
2 28370  98.5361 184.6222 0057284 193.8409 166.1216 14.47722439956599
APRIZESAT 1             
1 28372U 04025G   22223.46893956  .00000134  00000+0  46194-4 0  9999
2 28372  98.4971 184.7908 0047433 107.6149 253.0233 14.49823212958071
NANOSAT-1               
1 28493U 04049B   22223.22177758  .00000438  00000+0  74337-4 0  9995
2 28493  98.1151 324.0581 0005746 112.7079 247.4737 14.74055641947949
SAUDICOMSAT 7           
1 31119U 07012C   22223.30647566  .00000259  00000+0  60196-4 0  9994
2 31119  98.1865 168.6565 0058380 279.6239  79.8369 14.62133460816729
SAUDICOMSAT 6           
1 31121U 07012E   22223.51354330  .00000330  00000+0  77952-4 0  9992
2 31121  98.2273 164.1482 0076799  22.3820 338.0701 14.58913722814975
SAUDICOMSAT 5           
1 31124U 07012H   22223.30870392  .00000243  00000+0  55266-4 0  9990
2 31124  98.1555 170.2031 0050298 224.2519 135.4657 14.63859010817610
SAUDICOMSAT 3           
1 31125U 07012J   22223.29932322  .00000314  00000+0  65983-4 0  9997
2 31125  98.1211 171.6322 0043141 169.4754 190.7363 14.65684142818543
SAUDICOMSAT 4           
1 31127U 07012L   22223.43536095  .00000308  00000+0  71563-4 0  9996
2 31127  98.2093 167.1672 0067019 328.6301  31.0908 14.60644420815908
APRIZESAT 4             
1 35684U 09041D   22223.55058572  .00000328  00000+0  50629-4 0  9996
2 35684  98.3107 239.0840 0046948 173.3930 186.7910 14.79694417703216
APRIZESAT 3             
1 35686U 09041F   22222.96981685  .00000507  00000+0  59340-4 0  9990
2 35686  98.1066 310.8597 0072203   9.3505 350.9036 14.88000670706710
AISSAT 1                
1 36797U 10035C   22223.49043867  .00000840  00000+0  99920-4 0  9997
2 36797  98.2398  49.4569 0010852 358.7833   1.3354 14.87201332654623
S-NET D                 
1 43186U 18014G   22223.53655647  .00001318  00000+0  11620-3 0  9993
2 43186  97.6519 128.2168 0012006 111.7072 248.5430 14.98058062247166
S-NET B                 
1 43187U 18014H   22223.53676094  .00001327  00000+0  11698-3 0  9998
2 43187  97.6516 128.1659 0012020 111.6587 248.5917 14.98056047247165
S-NET A                 
1 43188U 18014J   22223.40346959  .00001313  00000+0  11585-3 0  9999
2 43188  97.6520 128.1017 0012014 112.1338 248.1161 14.98055172247145
S-NET C                 
1 43189U 18014K   22223.53785928  .00001360  00000+0  11980-3 0  9998
2 43189  97.6515 128.1549 0012063 111.6141 248.6368 14.98052939245713
SALSAT                  
1 46495U 20068K   22223.49459554  .00001455  00000+0  10749-3 0  9998
2 46495  97.7316 164.8250 0018387  91.0648 269.2685 15.04699901102469
